{"type":"FeatureCollection", "features": [
{"type":"Feature","geometry":{"type":"MultiPolygon","coordinates":[[[[29.1122,40.8195],[29.1137,40.818],[29.1135,40.8205],[29.1113,40.8205],[29.1122,40.8195]]],[[[29.0556,40.9088],[29.056,40.9108],[29.0512,40.9145],[29.0433,40.9139],[29.0392,40.9118],[29.0419,40.9076],[29.0458,40.9053],[29.0455,40.9026],[29.054,40.9032],[29.0573,40.9066],[29.0556,40.9088]]],[[[29.0772,40.8823],[29.0764,40.8812],[29.0781,40.8826],[29.0787,40.8848],[29.0773,40.8857],[29.0761,40.8847],[29.0772,40.8823]]],[[[29.1482,40.848],[29.1432,40.8557],[29.1408,40.8501],[29.1458,40.8468],[29.1482,40.848]]],[[[29.1236,40.8381],[29.1251,40.84],[29.1243,40.8442],[29.1266,40.8463],[29.1262,40.8573],[29.1307,40.86],[29.1391,40.8698],[29.1343,40.875],[29.1292,40.8751],[29.1156,40.8708],[29.1145,40.8622],[29.1072,40.8609],[29.113,40.8597],[29.1103,40.8534],[29.1147,40.8464],[29.1099,40.8418],[29.1121,40.8416],[29.1147,40.8382],[29.1236,40.8381]]],[[[29.0832,40.8769],[29.076,40.874],[29.0752,40.8685],[29.0833,40.8675],[29.0825,40.8704],[29.0853,40.8716],[29.0884,40.8704],[29.0872,40.8681],[29.0972,40.8695],[29.104,40.8734],[29.1015,40.8735],[29.1022,40.8751],[29.1041,40.874],[29.0972,40.8847],[29.0888,40.8832],[29.0903,40.8804],[29.0832,40.8769]]],[[[29.0574,40.8841],[29.0523,40.8782],[29.0563,40.8752],[29.0639,40.8739],[29.0724,40.8789],[29.0697,40.8804],[29.0695,40.8846],[29.0563,40.8867],[29.0574,40.8841]]],[[[28.9712,40.8743],[28.9742,40.8747],[28.9732,40.8771],[28.9694,40.8756],[28.9695,40.8741],[28.9712,40.8743]]],[[[28.9956,40.8656],[28.9902,40.8663],[28.9935,40.8632],[28.9966,40.8647],[28.9956,40.8656]]]]},"properties":{"name":"Adalar"},"id":"relation/963209"},
{"type":"Feature","geometry":{"type":"Polygon","coordinates":[[[29.5018,41.0315],[29.5089,41.0374],[29.5086,41.0417],[29.5115,41.0401],[29.5127,41.0423],[29.5175,41.044],[29.5209,41.0416],[29.5225,41.0421],[29.5272,41.0362],[29.5257,41.0343],[29.5282,41.0317],[29.5305,41.0319],[29.532,41.0341],[29.5373,41.0331],[29.5368,41.0355],[29.5386,41.0368],[29.5425,41.037],[29.5444,41.0354],[29.5468,41.037],[29.5508,41.0354],[29.5535,41.0389],[29.5581,41.0392],[29.5666,41.0346],[29.5735,41.0327],[29.5744,41.0351],[29.578,41.0326],[29.5978,41.0285],[29.6003,41.0266],[29.5972,41.0205],[29.6019,41.0125],[29.5989,41.0034],[29.6034,41.007],[29.6054,41.0055],[29.6091,41.0074],[29.6102,41.0064],[29.6104,40.9925],[29.6069,40.9908],[29.6049,40.9862],[29.6069,40.9813],[29.6109,40.98],[29.6136,40.9812],[29.621,40.9762],[29.6336,40.971],[29.642,40.9709],[29.6495,40.9686],[29.6518,40.9694],[29.6553,40.9673],[29.6556,40.9641],[29.6601,40.9627],[29.6623,40.9634],[29.6639,40.9618],[29.6717,40.9664],[29.6732,40.9645],[29.6767,40.9644],[29.6791,40.966],[29.6835,40.97],[29.6838,40.9771],[29.686,40.9796],[29.6896,40.9796],[29.6911,40.9813],[29.6884,40.9839],[29.691,40.9845],[29.692,40.9888],[29.7019,40.9903],[29.7065,40.9973],[29.7127,41.0001],[29.7123,41.0014],[29.7183,41.0021],[29.7197,41.0075],[29.7143,41.0106],[29.7134,41.0141],[29.7077,41.0155],[29.7063,41.0184],[29.7069,41.0263],[29.7044,41.0318],[29.7075,41.0342],[29.7146,41.0318],[29.7158,41.035],[29.7226,41.0335],[29.7276,41.0372],[29.7305,41.0432],[29.734,41.0444],[29.7379,41.041],[29.7376,41.0356],[29.742,41.035],[29.7449,41.0411],[29.7539,41.0284],[29.7607,41.024],[29.7698,41.0242],[29.7782,41.0275],[29.7805,41.0254],[29.783,41.0261],[29.7859,41.0215],[29.7947,41.0199],[29.7932,41.0151],[29.7963,41.0106],[29.7995,41.0187],[29.8061,41.0195],[29.8077,41.021],[29.813,41.0156],[29.8261,41.0141],[29.8307,41.0116],[29.8338,41.0129],[29.8334,41.0179],[29.8377,41.0185],[29.8413,41.022],[29.8458,41.022],[29.8552,41.0297],[29.861,41.0317],[29.867,41.0407],[29.8693,41.0419],[29.8807,41.0407],[29.8805,41.0548],[29.8868,41.0583],[29.8863,41.0629],[29.8909,41.0626],[29.892,41.0637],[29.8914,41.071],[29.8863,41.0798],[29.8921,41.0858],[29.8913,41.093],[29.9003,41.0909],[29.9048,41.0919],[29.9111,41.0879],[29.9174,41.0874],[29.918,41.0862],[29.9193,41.0879],[29.9377,41.0866],[29.9417,41.0836],[29.9541,41.0799],[29.9536,41.0828],[29.9572,41.0837],[29.9554,41.0896],[29.9579,41.094],[29.9544,41.0988],[29.9466,41.0994],[29.9436,41.0975],[29.9365,41.0986],[29.9297,41.0969],[29.9187,41.0989],[29.9167,41.1007],[29.9138,41.1067],[29.9153,41.1118],[29.9118,41.1184],[29.9144,41.1203],[29.912,41.119],[29.9101,41.1203],[29.9158,41.1248],[29.9163,41.1364],[29.9142,41.1396],[29.9182,41.1415],[29.9166,41.1426],[29.9129,41.1421],[29.9095,41.1433],[29.9076,41.1407],[29.9051,41.1429],[29.8953,41.1434],[29.8935,41.142],[29.8843,41.1423],[29.8757,41.1388],[29.8733,41.1406],[29.8743,41.142],[29.8644,41.1414],[29.8613,41.1436],[29.8522,41.1419],[29.8553,41.1393],[29.8514,41.1409],[29.8505,41.1392],[29.846,41.1386],[29.8195,41.1434],[29.8122,41.1478],[29.7962,41.1537],[29.7933,41.1539],[29.7894,41.1517],[29.7895,41.1554],[29.7834,41.1575],[29.7811,41.157],[29.7799,41.1584],[29.7767,41.156],[29.7753,41.1572],[29.7766,41.1587],[29.7671,41.1605],[29.7586,41.159],[29.756,41.1572],[29.7534,41.1585],[29.7524,41.1614],[29.751,41.159],[29.742,41.1599],[29.7408,41.1582],[29.7375,41.1582],[29.7333,41.1552],[29.7061,41.1597],[29.7028,41.1613],[29.7032,41.1639],[29.6975,41.164],[29.6971,41.1627],[29.6944,41.1639],[29.6916,41.1626],[29.6913,41.1639],[29.6899,41.1626],[29.6856,41.1638],[29.679,41.1619],[29.6723,41.1637],[29.6684,41.1666],[29.6663,41.1667],[29.6654,41.1651],[29.6601,41.1651],[29.6486,41.168],[29.6453,41.1695],[29.6449,41.172],[29.6418,41.1696],[29.6359,41.1707],[29.6327,41.1726],[29.6333,41.1743],[29.6249,41.1753],[29.6243,41.1797],[29.62,41.1795],[29.6182,41.1776],[29.6167,41.1793],[29.6143,41.1785],[29.6141,41.181],[29.6101,41.1797],[29.6074,41.1821],[29.5998,41.1787],[29.6063,41.1811],[29.6089,41.18],[29.6092,41.1781],[29.6039,41.1762],[29.6018,41.1779],[29.6037,41.1754],[29.5988,41.1717],[29.591,41.1707],[29.5741,41.1722],[29.5185,41.1838],[29.5094,41.184],[29.4898,41.1883],[29.4594,41.197],[29.4428,41.1993],[29.4087,41.2093],[29.3924,41.2122],[29.3895,41.215],[29.3786,41.2115],[29.3749,41.2129],[29.3687,41.2111],[29.3573,41.2108],[29.3531,41.2128],[29.3466,41.2129],[29.3457,41.2146],[29.3365,41.2146],[29.3325,41.2166],[29.3297,41.2112],[29.3324,41.2036],[29.3233,41.1954],[29.3219,41.1903],[29.3233,41.1895],[29.3211,41.1834],[29.3242,41.18],[29.3227,41.1764],[29.324,41.1681],[29.326,41.1694],[29.326,41.1642],[29.3289,41.163],[29.3293,41.1578],[29.3388,41.1594],[29.3408,41.1614],[29.3436,41.1559],[29.3463,41.1542],[29.3454,41.1517],[29.3508,41.1535],[29.3568,41.1497],[29.3537,41.1428],[29.3571,41.1433],[29.3637,41.1413],[29.3654,41.1356],[29.3591,41.1254],[29.3669,41.1227],[29.3728,41.1258],[29.3783,41.1229],[29.3801,41.1211],[29.3825,41.109],[29.3892,41.1062],[29.3916,41.1029],[29.4014,41.1],[29.402,41.0985],[29.4004,41.0943],[29.3935,41.0932],[29.3902,41.0896],[29.3935,41.0869],[29.3994,41.0859],[29.3996,41.0824],[29.3945,41.0814],[29.3945,41.0774],[29.3878,41.0735],[29.39,41.0711],[29.3851,41.0691],[29.3801,41.0616],[29.3744,41.0577],[29.3701,41.0571],[29.3765,41.0493],[29.375,41.0433],[29.3763,41.0352],[29.3846,41.0293],[29.3994,41.0244],[29.4047,41.0239],[29.4108,41.0267],[29.4138,41.0266],[29.4307,41.0203],[29.4283,41.0154],[29.433,41.0144],[29.4348,41.012],[29.4336,41.0087],[29.4358,41.0101],[29.4381,41.0094],[29.4344,41.0026],[29.4398,40.9998],[29.4414,40.9964],[29.4495,40.999],[29.4662,41.009],[29.4758,41.0164],[29.4759,41.018],[29.4813,41.0204],[29.4836,41.0238],[29.4836,41.03],[29.4975,41.0358],[29.5018,41.0315]]]},"properties":{"name":"Şile"},"id":"relation/1275310"},
{"type":"Feature","geometry":{"type":"Polygon","coordinates":[[[28.0811,41.2988],[28.0803,41.2969],[28.0759,41.2948],[28.0767,41.2879],[28.0721,41.285],[28.0718,41.2826],[28.0675,41.279],[28.0631,41.2777],[28.0579,41.268],[28.0459,41.2653],[28.0301,41.2561],[28.0155,41.2523],[28.0039,41.2441],[27.9997,41.2391],[27.9975,41.2304],[27.9985,41.2223],[28.016,41.2005],[28.0152,41.1973],[28.0189,41.1843],[28.0224,41.18],[28.0142,41.1669],[28.0111,41.1662],[28.0115,41.1629],[27.9831,41.1627],[27.9775,41.1558],[27.9765,41.1514],[27.9791,41.1444],[27.9721,41.1245],[27.9757,41.124],[27.9757,41.1177],[27.9725,41.1122],[27.9768,41.1109],[27.9728,41.1089],[27.9758,41.1072],[27.9714,41.1004],[27.9783,41.0979],[27.9745,41.0877],[27.979,41.0836],[27.975,41.0801],[27.9753,41.0753],[27.9813,41.0759],[27.9811,41.0722],[27.984,41.0716],[27.9753,41.0656],[27.9787,41.0582],[27.9772,41.0522],[27.9786,41.0523],[27.979,41.0492],[27.9742,41.0426],[27.9769,41.0421],[27.9766,41.0439],[27.9804,41.0437],[27.9816,41.0401],[27.9859,41.044],[27.9923,41.0428],[27.9953,41.0381],[28.0049,41.0401],[28.0057,41.0335],[28.0076,41.0321],[28.0306,41.0412],[28.045,41.0427],[28.0737,41.0565],[28.1138,41.0612],[28.1229,41.0597],[28.1255,41.0635],[28.1306,41.0661],[28.143,41.069],[28.1558,41.0696],[28.168,41.0729],[28.1849,41.0733],[28.2115,41.0704],[28.2192,41.0768],[28.2249,41.0778],[28.2362,41.0775],[28.2414,41.0754],[28.2424,41.0748],[28.2399,41.0735],[28.2422,41.0742],[28.243,41.0728],[28.2407,41.0721],[28.243,41.0723],[28.2402,41.0709],[28.2388,41.0723],[28.2404,41.0701],[28.2413,41.0713],[28.2503,41.0684],[28.26,41.0625],[28.2837,41.0633],[28.3064,41.06],[28.3131,41.0576],[28.3348,41.0568],[28.3406,41.0583],[28.3518,41.0562],[28.3524,41.0542],[28.3599,41.0538],[28.3652,41.052],[28.3721,41.053],[28.391,41.0481],[28.3934,41.0563],[28.3939,41.0657],[28.3922,41.0661],[28.3918,41.0707],[28.3941,41.0757],[28.3932,41.0779],[28.3897,41.0806],[28.3907,41.0867],[28.3955,41.0942],[28.3913,41.0984],[28.3875,41.1123],[28.3872,41.124],[28.3803,41.1281],[28.3886,41.1293],[28.3818,41.1438],[28.3851,41.1486],[28.3813,41.1543],[28.3838,41.16],[28.3779,41.1632],[28.3763,41.1618],[28.3708,41.162],[28.3697,41.1718],[28.3653,41.1733],[28.3692,41.177],[28.3721,41.1836],[28.3744,41.1844],[28.3714,41.1886],[28.3683,41.1888],[28.3674,41.1922],[28.3696,41.1938],[28.3735,41.194],[28.3748,41.1953],[28.3733,41.1969],[28.3784,41.2014],[28.3738,41.2055],[28.3743,41.2086],[28.3699,41.2093],[28.3677,41.2082],[28.3663,41.2123],[28.3523,41.2214],[28.3464,41.2344],[28.3473,41.2378],[28.3441,41.239],[28.3441,41.2409],[28.3347,41.239],[28.3322,41.2402],[28.329,41.2387],[28.3237,41.2424],[28.3169,41.2444],[28.3182,41.2507],[28.3112,41.2577],[28.3076,41.2589],[28.3057,41.2673],[28.3023,41.2688],[28.3027,41.275],[28.2952,41.2752],[28.3095,41.2863],[28.3097,41.2893],[28.3131,41.2908],[28.3183,41.3045],[28.3234,41.3075],[28.3102,41.3103],[28.3048,41.3081],[28.2997,41.3085],[28.2894,41.3047],[28.2818,41.3117],[28.278,41.3109],[28.2673,41.318],[28.2654,41.3245],[28.2758,41.334],[28.2747,41.3351],[28.2764,41.3396],[28.2797,41.3417],[28.2814,41.3464],[28.2727,41.3551],[28.2681,41.3546],[28.2635,41.3471],[28.2502,41.3456],[28.2481,41.344],[28.2418,41.3454],[28.2331,41.342],[28.2278,41.3423],[28.2186,41.3458],[28.2133,41.3408],[28.2112,41.3355],[28.2044,41.3451],[28.1598,41.3583],[28.1424,41.3582],[28.1351,41.3607],[28.1318,41.3635],[28.1356,41.3543],[28.1352,41.3479],[28.1251,41.3359],[28.1274,41.3336],[28.1303,41.3238],[28.1339,41.3205],[28.1376,41.3204],[28.1388,41.3183],[28.1341,41.3178],[28.1325,41.3141],[28.1179,41.3017],[28.1159,41.2983],[28.1084,41.2967],[28.1086,41.298],[28.1061,41.2989],[28.1033,41.2971],[28.0944,41.2996],[28.0935,41.2971],[28.0886,41.2957],[28.0864,41.2976],[28.0811,41.2988]]]},"properties":{"name":"Silivri"},"id":"relation/1275379"},
{"type":"Feature","geometry":{"type":"Polygon","coordinates":[[[28.391,41.0481],[28.3974,41.0478],[28.4292,41.0386],[28.4658,41.0246],[28.4803,41.0162],[28.4826,41.013],[28.5071,41.0032],[28.5091,41.0009],[28.5076,41.0002],[28.5074,40.9998],[28.5075,40.9993],[28.5084,40.9982],[28.5101,40.9969],[28.5104,40.9971],[28.5086,40.9982],[28.5076,40.9998],[28.5079,41],[28.5091,40.9986],[28.509,41.0005],[28.5102,40.9979],[28.5181,40.9965],[28.5377,40.9877],[28.5415,40.9845],[28.5442,40.9861],[28.547,40.9995],[28.5511,41.0034],[28.552,41.0072],[28.5654,41.014],[28.5662,41.0153],[28.5629,41.0137],[28.5632,41.0165],[28.5654,41.0155],[28.5675,41.0182],[28.5727,41.0183],[28.5745,41.0165],[28.5788,41.0157],[28.575,41.0167],[28.5748,41.0183],[28.5776,41.018],[28.5776,41.0168],[28.5778,41.018],[28.5859,41.0172],[28.5963,41.0135],[28.5999,41.0084],[28.597,40.997],[28.6017,40.998],[28.6027,40.9963],[28.605,40.9975],[28.6126,40.9917],[28.6196,41.0031],[28.6258,41.0097],[28.6264,41.0167],[28.6318,41.0164],[28.6334,41.0185],[28.6288,41.021],[28.6285,41.025],[28.6234,41.034],[28.6277,41.0438],[28.6281,41.0526],[28.6205,41.0687],[28.6293,41.084],[28.6285,41.0855],[28.6336,41.0888],[28.6296,41.0922],[28.631,41.0932],[28.6293,41.0966],[28.6252,41.1004],[28.6229,41.1076],[28.6193,41.1102],[28.6145,41.1184],[28.6095,41.1157],[28.6083,41.1111],[28.6046,41.1122],[28.6041,41.1183],[28.6012,41.12],[28.5977,41.1198],[28.5925,41.1291],[28.5908,41.1261],[28.588,41.1278],[28.5868,41.1267],[28.5844,41.1279],[28.5807,41.127],[28.5668,41.1142],[28.5624,41.1156],[28.5593,41.1041],[28.5535,41.0934],[28.5465,41.0931],[28.5375,41.1016],[28.5229,41.1077],[28.5083,41.1023],[28.5158,41.0855],[28.5252,41.0728],[28.5208,41.0698],[28.5157,41.0712],[28.515,41.0686],[28.5073,41.0665],[28.5035,41.0615],[28.4987,41.0592],[28.4805,41.0571],[28.4719,41.0678],[28.4567,41.0682],[28.4441,41.0759],[28.4328,41.0787],[28.4292,41.0764],[28.4222,41.0752],[28.4158,41.078],[28.4117,41.0822],[28.4017,41.0853],[28.3988,41.0832],[28.3973,41.0839],[28.3932,41.0779],[28.3941,41.0757],[28.3918,41.0707],[28.3922,41.0661],[28.3939,41.0657],[28.3934,41.0563],[28.391,41.0481]]]},"properties":{"name":"Büyükçekmece"},"id":"relation/1275387"},
{"type":"Feature","geometry":{"type":"Polygon","coordinates":[[[28.3932,41.0779],[28.3973,41.0839],[28.3988,41.0832],[28.4017,41.0853],[28.4117,41.0822],[28.4158,41.078],[28.4222,41.0752],[28.4292,41.0764],[28.4328,41.0787],[28.4441,41.0759],[28.4567,41.0682],[28.4719,41.0678],[28.4805,41.0571],[28.4987,41.0592],[28.5035,41.0615],[28.5073,41.0665],[28.515,41.0686],[28.5157,41.0712],[28.5208,41.0698],[28.5252,41.0728],[28.5158,41.0855],[28.5083,41.1023],[28.5229,41.1077],[28.5375,41.1016],[28.5465,41.0931],[28.5535,41.0934],[28.5593,41.1041],[28.5624,41.1156],[28.5632,41.1201],[28.5744,41.1288],[28.5679,41.1409],[28.5804,41.1521],[28.5859,41.164],[28.5917,41.1666],[28.5943,41.1716],[28.5954,41.1853],[28.5947,41.1907],[28.5858,41.2053],[28.5824,41.2173],[28.5838,41.2205],[28.5825,41.2317],[28.5792,41.2294],[28.5752,41.2338],[28.5782,41.2385],[28.5762,41.2412],[28.5778,41.2464],[28.5752,41.2486],[28.5756,41.258],[28.5611,41.2612],[28.5506,41.2597],[28.5465,41.2642],[28.5446,41.2703],[28.5445,41.2757],[28.5522,41.2789],[28.5519,41.287],[28.5567,41.2951],[28.5573,41.3094],[28.5731,41.3536],[28.5653,41.366],[28.5342,41.3711],[28.5197,41.3832],[28.4956,41.3877],[28.4914,41.3901],[28.4912,41.4049],[28.4932,41.4076],[28.4714,41.4175],[28.4329,41.4311],[28.3812,41.4517],[28.2848,41.4916],[28.2783,41.4955],[28.2723,41.4962],[28.2685,41.5],[28.2619,41.5023],[28.26,41.5073],[28.2561,41.5077],[28.2504,41.5115],[28.2494,41.5105],[28.2468,41.5113],[28.2471,41.5144],[28.2374,41.517],[28.2326,41.5202],[28.2323,41.5236],[28.2288,41.525],[28.2242,41.5231],[28.2205,41.5247],[28.2191,41.528],[28.2219,41.5293],[28.214,41.533],[28.2078,41.5387],[28.206,41.5385],[28.1991,41.5454],[28.2,41.5485],[28.1925,41.5482],[28.193,41.5525],[28.1864,41.5538],[28.1858,41.5574],[28.1882,41.5576],[28.1881,41.5589],[28.1831,41.561],[28.1813,41.5638],[28.1815,41.5656],[28.1867,41.5668],[28.1826,41.5684],[28.1827,41.5715],[28.1786,41.5724],[28.1762,41.5714],[28.1772,41.5731],[28.168,41.5738],[28.166,41.5748],[28.1664,41.5783],[28.1537,41.5799],[28.1465,41.585],[28.1368,41.5816],[28.1332,41.5757],[28.1282,41.5737],[28.1256,41.569],[28.1238,41.569],[28.123,41.5656],[28.118,41.5634],[28.1176,41.5609],[28.1223,41.56],[28.1247,41.5569],[28.1231,41.5528],[28.1205,41.553],[28.1187,41.5512],[28.122,41.5489],[28.1203,41.545],[28.1155,41.5445],[28.1212,41.5404],[28.1195,41.5342],[28.105,41.523],[28.0976,41.5227],[28.0921,41.5176],[28.077,41.5167],[28.0757,41.5129],[28.0703,41.5089],[28.0734,41.5004],[28.0709,41.4941],[28.0786,41.4931],[28.0853,41.4901],[28.0928,41.4805],[28.0991,41.4779],[28.0995,41.4763],[28.1047,41.4762],[28.1062,41.4692],[28.1112,41.4658],[28.1113,41.4539],[28.1136,41.4447],[28.1102,41.4286],[28.1152,41.418],[28.1222,41.4099],[28.113,41.4075],[28.1088,41.4042],[28.1008,41.4039],[28.0981,41.3853],[28.0893,41.3698],[28.0887,41.3458],[28.0779,41.3211],[28.0764,41.3022],[28.0784,41.3011],[28.0771,41.2999],[28.0788,41.297],[28.0811,41.2988],[28.0864,41.2976],[28.0886,41.2957],[28.0935,41.2971],[28.0944,41.2996],[28.1033,41.2971],[28.1061,41.2989],[28.1086,41.298],[28.1084,41.2967],[28.1159,41.2983],[28.1179,41.3017],[28.1325,41.3141],[28.1341,41.3178],[28.1388,41.3183],[28.1376,41.3204],[28.1339,41.3205],[28.1303,41.3238],[28.1274,41.3336],[28.1251,41.3359],[28.1352,41.3479],[28.1356,41.3543],[28.1318,41.3635],[28.1351,41.3607],[28.1424,41.3582],[28.1598,41.3583],[28.2044,41.3451],[28.2112,41.3355],[28.2133,41.3408],[28.2186,41.3458],[28.2278,41.3423],[28.2331,41.342],[28.2418,41.3454],[28.2481,41.344],[28.2502,41.3456],[28.2635,41.3471],[28.2681,41.3546],[28.2727,41.3551],[28.2814,41.3464],[28.2797,41.3417],[28.2764,41.3396],[28.2747,41.3351],[28.2758,41.334],[28.2654,41.3245],[28.2673,41.318],[28.278,41.3109],[28.2818,41.3117],[28.2894,41.3047],[28.2997,41.3085],[28.3048,41.3081],[28.3102,41.3103],[28.3234,41.3075],[28.3183,41.3045],[28.3131,41.2908],[28.3097,41.2893],[28.3095,41.2863],[28.2952,41.2752],[28.3027,41.275],[28.3023,41.2688],[28.3057,41.2673],[28.3076,41.2589],[28.3112,41.2577],[28.3182,41.2507],[28.3169,41.2444],[28.3237,41.2424],[28.329,41.2387],[28.3322,41.2402],[28.3347,41.239],[28.3441,41.2409],[28.3441,41.239],[28.3473,41.2378],[28.3464,41.2344],[28.3523,41.2214],[28.3663,41.2123],[28.3677,41.2082],[28.3699,41.2093],[28.3743,41.2086],[28.3738,41.2055],[28.3784,41.2014],[28.3733,41.1969],[28.3748,41.1953],[28.3735,41.194],[28.3696,41.1938],[28.3674,41.1922],[28.3683,41.1888],[28.3714,41.1886],[28.3744,41.1844],[28.3721,41.1836],[28.3692,41.177],[28.3653,41.1733],[28.3697,41.1718],[28.3708,41.162],[28.3763,41.1618],[28.3779,41.1632],[28.3838,41.16],[28.3813,41.1543],[28.3851,41.1486],[28.3818,41.1438],[28.3886,41.1293],[28.3803,41.1281],[28.3872,41.124],[28.3875,41.1123],[28.3913,41.0984],[28.3955,41.0942],[28.3907,41.0867],[28.3897,41.0806],[28.3932,41.0779]]]},"properties":{"name":"Çatalca"},"id":"relation/1275389"},
{"type":"Feature","geometry":{"type":"Polygon","coordinates":[[[29.2873,40.8544],[29.2913,40.845],[29.2894,40.843],[29.2858,40.844],[29.2832,40.8415],[29.2842,40.8397],[29.2803,40.8357],[29.2822,40.8343],[29.2799,40.8354],[29.2783,40.8339],[29.2711,40.8373],[29.2674,40.8423],[29.2704,40.8454],[29.2713,40.8506],[29.2708,40.8492],[29.2678,40.8497],[29.2627,40.84],[29.2667,40.8399],[29.2653,40.8388],[29.2683,40.8384],[29.2662,40.8379],[29.2694,40.8365],[29.2668,40.8351],[29.2641,40.8372],[29.2673,40.834],[29.2717,40.8318],[29.2777,40.8317],[29.2798,40.8265],[29.2748,40.8202],[29.2697,40.8197],[29.2674,40.8151],[29.262,40.8164],[29.2661,40.8189],[29.2634,40.8186],[29.2579,40.8143],[29.2546,40.8146],[29.2587,40.808],[29.2571,40.8027],[29.2636,40.805],[29.2655,40.8095],[29.2643,40.8082],[29.2617,40.8088],[29.2621,40.8099],[29.2647,40.8094],[29.2652,40.8115],[29.2709,40.8116],[29.2774,40.8142],[29.2849,40.8123],[29.2879,40.8139],[29.2974,40.8117],[29.2933,40.8141],[29.2955,40.8164],[29.3023,40.8155],[29.309,40.8114],[29.3128,40.8132],[29.3179,40.8129],[29.3145,40.8136],[29.3159,40.8161],[29.3177,40.8137],[29.3205,40.8137],[29.3182,40.8171],[29.32,40.8174],[29.3207,40.8153],[29.3207,40.8178],[29.3222,40.816],[29.3234,40.8171],[29.3229,40.815],[29.3251,40.8184],[29.3249,40.8171],[29.3256,40.8182],[29.3297,40.8166],[29.3347,40.8141],[29.3362,40.8114],[29.3359,40.8127],[29.34,40.8107],[29.3485,40.8241],[29.3545,40.8223],[29.3623,40.8164],[29.3642,40.819],[29.3641,40.8272],[29.3712,40.8379],[29.3683,40.84],[29.3631,40.8491],[29.3616,40.8491],[29.3681,40.8558],[29.3644,40.8584],[29.3673,40.8629],[29.3712,40.864],[29.3742,40.8685],[29.3801,40.8721],[29.3966,40.8763],[29.4036,40.8798],[29.4137,40.879],[29.4161,40.8978],[29.4422,40.9005],[29.4562,40.9123],[29.4562,40.9146],[29.4526,40.917],[29.4503,40.9153],[29.4443,40.9163],[29.4423,40.9201],[29.4425,40.933],[29.4389,40.9339],[29.4401,40.9357],[29.4374,40.938],[29.4407,40.9405],[29.4403,40.9438],[29.452,40.9475],[29.4566,40.9544],[29.4534,40.9597],[29.4564,40.9707],[29.454,40.98],[29.4464,40.9755],[29.4182,40.9729],[29.4134,40.9695],[29.4067,40.9601],[29.4,40.9645],[29.3959,40.9542],[29.3911,40.9531],[29.3901,40.9546],[29.3899,40.9525],[29.3846,40.9513],[29.3823,40.9481],[29.3762,40.9482],[29.3728,40.9422],[29.3557,40.9351],[29.3366,40.9311],[29.3386,40.9263],[29.3358,40.9139],[29.3348,40.9118],[29.3279,40.909],[29.3293,40.9016],[29.3266,40.9],[29.3291,40.8961],[29.3279,40.8903],[29.3247,40.8862],[29.3146,40.8788],[29.3066,40.8768],[29.312,40.8743],[29.3121,40.8686],[29.3152,40.8637],[29.306,40.8611],[29.3039,40.8638],[29.2981,40.8638],[29.2948,40.8575],[29.2912,40.8555],[29.2877,40.8574],[29.2873,40.8544]]]},"properties":{"name":"Tuzla"},"id":"relation/1276010"},
{"type":"Feature","geometry":{"type":"Polygon","coordinates":[[[29.3701,41.0571],[29.3638,41.0598],[29.3597,41.0557],[29.3599,41.0493],[29.3639,41.0468],[29.3646,41.0443],[29.3599,41.0392],[29.3592,41.0343],[29.3637,41.0275],[29.3616,41.0258],[29.3538,41.0247],[29.3426,41.0159],[29.3025,41.0146],[29.2958,41.0155],[29.2952,41.0112],[29.2888,41.0064],[29.2868,41.0024],[29.29,40.9791],[29.289,40.9757],[29.2936,40.9689],[29.3002,40.9642],[29.3028,40.959],[29.3108,40.96],[29.3118,40.959],[29.31,40.9493],[29.2959,40.9381],[29.2803,40.9346],[29.2736,40.9317],[29.2736,40.9334],[29.2711,40.9335],[29.2553,40.9313],[29.2496,40.9223],[29.243,40.9196],[29.2451,40.9149],[29.2435,40.9139],[29.2459,40.9116],[29.2467,40.9008],[29.2429,40.8983],[29.2377,40.8988],[29.2371,40.8962],[29.2322,40.8923],[29.2245,40.8974],[29.2233,40.8896],[29.2187,40.8901],[29.2179,40.8807],[29.2154,40.8781],[29.2224,40.8755],[29.2271,40.8711],[29.2396,40.8677],[29.2335,40.8708],[29.2357,40.872],[29.2352,40.8747],[29.2438,40.873],[29.2574,40.867],[29.2564,40.8662],[29.2585,40.8671],[29.2547,40.8625],[29.2561,40.8595],[29.2566,40.8644],[29.2589,40.8645],[29.2651,40.86],[29.2593,40.8571],[29.2524,40.8592],[29.2604,40.855],[29.2674,40.8539],[29.2677,40.8558],[29.2695,40.8567],[29.27,40.8558],[29.2717,40.8578],[29.275,40.8556],[29.2873,40.8544],[29.2877,40.8574],[29.2912,40.8555],[29.2948,40.8575],[29.2981,40.8638],[29.3039,40.8638],[29.306,40.8611],[29.3152,40.8637],[29.3121,40.8686],[29.312,40.8743],[29.3066,40.8768],[29.3146,40.8788],[29.3247,40.8862],[29.3279,40.8903],[29.3291,40.8961],[29.3266,40.9],[29.3293,40.9016],[29.3279,40.909],[29.3348,40.9118],[29.3358,40.9139],[29.3386,40.9263],[29.3366,40.9311],[29.3557,40.9351],[29.3728,40.9422],[29.3762,40.9482],[29.3823,40.9481],[29.3846,40.9513],[29.3899,40.9525],[29.3901,40.9546],[29.3911,40.9531],[29.3959,40.9542],[29.4,40.9645],[29.4067,40.9601],[29.4134,40.9695],[29.4182,40.9729],[29.4464,40.9755],[29.454,40.98],[29.4564,40.9707],[29.4534,40.9597],[29.4566,40.9544],[29.4633,40.951],[29.47,40.9517],[29.4748,40.9588],[29.4763,40.9595],[29.4792,40.9577],[29.4792,40.9618],[29.4825,40.962],[29.4852,40.9661],[29.485,40.9683],[29.4819,40.97],[29.485,40.975],[29.4897,40.9768],[29.5009,40.9867],[29.5065,40.9881],[29.5052,41.0002],[29.5026,41.0004],[29.4929,41.0083],[29.4936,41.0127],[29.4997,41.0172],[29.4998,41.0262],[29.5018,41.0315],[29.4975,41.0358],[29.4836,41.03],[29.4836,41.0238],[29.4813,41.0204],[29.4759,41.018],[29.4758,41.0164],[29.4662,41.009],[29.4495,40.999],[29.4414,40.9964],[29.4398,40.9998],[29.4344,41.0026],[29.4381,41.0094],[29.4358,41.0101],[29.4336,41.0087],[29.4348,41.012],[29.433,41.0144],[29.4283,41.0154],[29.4307,41.0203],[29.4138,41.0266],[29.4108,41.0267],[29.4047,41.0239],[29.3994,41.0244],[29.3846,41.0293],[29.3763,41.0352],[29.375,41.0433],[29.3765,41.0493],[29.3701,41.0571]]]},"properties":{"name":"Pendik"},"id":"relation/1276011"},
{"type":"Feature","geometry":{"type":"Polygon","coordinates":[[[29.2868,41.0024],[29.263,41.0049],[29.2597,41.0032],[29.2578,40.9945],[29.2544,40.9899],[29.252,40.9764],[29.2449,40.9692],[29.2498,40.9559],[29.2492,40.9521],[29.2464,40.9505],[29.2498,40.9458],[29.2524,40.9341],[29.2553,40.9313],[29.2711,40.9335],[29.2736,40.9334],[29.2736,40.9317],[29.2803,40.9346],[29.2959,40.9381],[29.31,40.9493],[29.3118,40.959],[29.3108,40.96],[29.3028,40.959],[29.3002,40.9642],[29.2936,40.9689],[29.289,40.9757],[29.29,40.9791],[29.2868,41.0024]]]},"properties":{"name":"Sultanbeyli"},"id":"relation/1276012"},
{"type":"Feature","geometry":{"type":"Polygon","coordinates":[[[29.2553,40.9313],[29.2524,40.9341],[29.2498,40.9458],[29.2464,40.9505],[29.242,40.949],[29.2301,40.9485],[29.2256,40.9522],[29.2211,40.951],[29.2163,40.946],[29.2094,40.9372],[29.2041,40.9225],[29.1998,40.921],[29.1991,40.9236],[29.194,40.9212],[29.1832,40.9214],[29.1774,40.9194],[29.1718,40.9192],[29.157,40.9137],[29.1594,40.9132],[29.1511,40.9097],[29.1475,40.9141],[29.1429,40.9136],[29.1394,40.9114],[29.1399,40.9078],[29.1383,40.9067],[29.1442,40.9017],[29.1481,40.9004],[29.1476,40.9014],[29.1518,40.9015],[29.1637,40.8964],[29.1794,40.8857],[29.1845,40.8853],[29.1883,40.887],[29.1981,40.8834],[29.2037,40.8833],[29.2057,40.8811],[29.2061,40.882],[29.2154,40.8781],[29.2179,40.8807],[29.2187,40.8901],[29.2233,40.8896],[29.2245,40.8974],[29.2322,40.8923],[29.2371,40.8962],[29.2377,40.8988],[29.2429,40.8983],[29.2467,40.9008],[29.2459,40.9116],[29.2435,40.9139],[29.2451,40.9149],[29.243,40.9196],[29.2496,40.9223],[29.2553,40.9313]]]},"properties":{"name":"Kartal"},"id":"relation/1276013"},
{"type":"Feature","geometry":{"type":"Polygon","coordinates":[[[29.3599,41.0392],[29.3506,41.0419],[29.3474,41.0411],[29.3466,41.048],[29.3298,41.0485],[29.3221,41.0509],[29.3121,41.0486],[29.3025,41.0495],[29.3001,41.0478],[29.2903,41.0527],[29.2848,41.0505],[29.2815,41.0449],[29.2745,41.0423],[29.2728,41.0372],[29.2655,41.0298],[29.2592,41.0278],[29.2502,41.028],[29.2515,41.0254],[29.2491,41.0235],[29.2463,41.0234],[29.2461,41.0246],[29.246,41.0218],[29.2387,41.0219],[29.2353,41.0169],[29.2136,41.0159],[29.2053,41.013],[29.1997,41.0142],[29.1908,41.0138],[29.194,41.0133],[29.1947,41.0114],[29.1854,41.0088],[29.1893,41.006],[29.1929,40.9967],[29.1911,40.9926],[29.1928,40.9925],[29.1926,40.989],[29.2035,40.9832],[29.198,40.9813],[29.1994,40.9743],[29.2026,40.9762],[29.2061,40.9752],[29.2052,40.9736],[29.2123,40.9759],[29.214,40.9742],[29.207,40.9609],[29.2146,40.9531],[29.2163,40.946],[29.2211,40.951],[29.2256,40.9522],[29.2301,40.9485],[29.242,40.949],[29.2464,40.9505],[29.2492,40.9521],[29.2498,40.9559],[29.2449,40.9692],[29.252,40.9764],[29.2544,40.9899],[29.2578,40.9945],[29.2597,41.0032],[29.263,41.0049],[29.2868,41.0024],[29.2888,41.0064],[29.2952,41.0112],[29.2958,41.0155],[29.3025,41.0146],[29.3426,41.0159],[29.3538,41.0247],[29.3616,41.0258],[29.3637,41.0275],[29.3592,41.0343],[29.3599,41.0392]]]},"properties":{"name":"Sancaktepe"},"id":"relation/1276014"},
{"type":"Feature","geometry":{"type":"Polygon","coordinates":[[[29.3591,41.1254],[29.3526,41.125],[29.3499,41.1266],[29.3508,41.1289],[29.3464,41.1296],[29.3278,41.1259],[29.3197,41.1298],[29.3141,41.1279],[29.3121,41.1257],[29.303,41.126],[29.2986,41.1287],[29.292,41.1295],[29.2852,41.1325],[29.2851,41.1284],[29.2821,41.1257],[29.2809,41.1206],[29.2757,41.1218],[29.274,41.12],[29.2628,41.1162],[29.2597,41.1188],[29.2567,41.1159],[29.2528,41.116],[29.2517,41.1145],[29.2529,41.1119],[29.249,41.111],[29.2492,41.1055],[29.2446,41.1024],[29.2424,41.1043],[29.2381,41.1023],[29.2343,41.105],[29.2339,41.1102],[29.2322,41.11],[29.2298,41.1069],[29.222,41.1044],[29.2224,41.0968],[29.2164,41.0926],[29.2134,41.0925],[29.2132,41.0908],[29.2105,41.0916],[29.2093,41.0897],[29.2077,41.0905],[29.2083,41.0881],[29.202,41.0734],[29.2048,41.0649],[29.2099,41.0588],[29.2079,41.0565],[29.2019,41.0562],[29.1969,41.0536],[29.1913,41.0549],[29.1709,41.0541],[29.1684,41.0561],[29.1674,41.054],[29.1546,41.0494],[29.1485,41.0492],[29.1479,41.0474],[29.142,41.0475],[29.1412,41.0432],[29.1383,41.0414],[29.1404,41.0342],[29.1478,41.0369],[29.1621,41.0346],[29.1709,41.0302],[29.1798,41.0213],[29.1834,41.0151],[29.1908,41.0138],[29.1997,41.0142],[29.2053,41.013],[29.2136,41.0159],[29.2353,41.0169],[29.2387,41.0219],[29.246,41.0218],[29.2461,41.0246],[29.2463,41.0234],[29.2491,41.0235],[29.2515,41.0254],[29.2502,41.028],[29.2592,41.0278],[29.2655,41.0298],[29.2728,41.0372],[29.2745,41.0423],[29.2815,41.0449],[29.2848,41.0505],[29.2903,41.0527],[29.3001,41.0478],[29.3025,41.0495],[29.3121,41.0486],[29.3221,41.0509],[29.3298,41.0485],[29.3466,41.048],[29.3474,41.0411],[29.3506,41.0419],[29.3599,41.0392],[29.3646,41.0443],[29.3639,41.0468],[29.3599,41.0493],[29.3597,41.0557],[29.3638,41.0598],[29.3701,41.0571],[29.3744,41.0577],[29.3801,41.0616],[29.3851,41.0691],[29.39,41.0711],[29.3878,41.0735],[29.3945,41.0774],[29.3945,41.0814],[29.3996,41.0824],[29.3994,41.0859],[29.3935,41.0869],[29.3902,41.0896],[29.3935,41.0932],[29.4004,41.0943],[29.402,41.0985],[29.4014,41.1],[29.3916,41.1029],[29.3892,41.1062],[29.3825,41.109],[29.3801,41.1211],[29.3783,41.1229],[29.3728,41.1258],[29.3669,41.1227],[29.3591,41.1254]]]},"properties":{"name":"Çekmeköy"},"id":"relation/1276034"},
{"type":"Feature","geometry":{"type":"Polygon","coordinates":[[[29.2163,40.946],[29.2146,40.9531],[29.207,40.9609],[29.214,40.9742],[29.2123,40.9759],[29.2052,40.9736],[29.2061,40.9752],[29.2026,40.9762],[29.1994,40.9743],[29.198,40.9813],[29.1796,40.9745],[29.1779,40.9772],[29.1734,40.9761],[29.1716,40.9782],[29.1623,40.9808],[29.1575,40.9791],[29.1539,40.9742],[29.1496,40.9724],[29.1374,40.9741],[29.1262,40.9728],[29.1158,40.9606],[29.1113,40.9591],[29.1012,40.9563],[29.0948,40.952],[29.1028,40.9443],[29.1019,40.9392],[29.1031,40.944],[29.1072,40.9426],[29.1067,40.9391],[29.1132,40.9316],[29.1124,40.9301],[29.1163,40.9333],[29.1137,40.9288],[29.1192,40.9225],[29.1227,40.9243],[29.1193,40.9224],[29.1217,40.9196],[29.128,40.919],[29.132,40.9121],[29.1383,40.9067],[29.1399,40.9078],[29.1394,40.9114],[29.1429,40.9136],[29.1475,40.9141],[29.1511,40.9097],[29.1594,40.9132],[29.157,40.9137],[29.1718,40.9192],[29.1774,40.9194],[29.1832,40.9214],[29.194,40.9212],[29.1991,40.9236],[29.1998,40.921],[29.2041,40.9225],[29.2094,40.9372],[29.2163,40.946]]]},"properties":{"name":"Maltepe"},"id":"relation/1276407"},
{"type":"Feature","geometry":{"type":"Polygon","coordinates":[[[29.1113,40.9591],[29.1038,40.9668],[29.0926,40.9836],[29.0866,40.9874],[29.0733,40.9924],[29.0472,41.0015],[29.0472,41.0102],[29.0432,41.0097],[29.0371,41.0123],[29.0218,40.9985],[29.0176,41.0013],[29.0158,41.0002],[29.0191,40.997],[29.0175,40.9961],[29.0225,40.996],[29.0241,40.9942],[29.0204,40.9911],[29.0148,40.9926],[29.0202,40.9853],[29.0214,40.9789],[29.0295,40.9797],[29.0337,40.9822],[29.0382,40.9785],[29.0361,40.9769],[29.0388,40.9777],[29.038,40.9758],[29.0397,40.9759],[29.0362,40.9742],[29.0347,40.9765],[29.0352,40.9738],[29.0371,40.9743],[29.0383,40.9709],[29.0366,40.9696],[29.0339,40.971],[29.0337,40.9739],[29.0322,40.9668],[29.0345,40.9664],[29.0375,40.9689],[29.0418,40.9656],[29.0454,40.9696],[29.0488,40.9692],[29.0534,40.9674],[29.0565,40.9637],[29.0583,40.964],[29.0577,40.9631],[29.0688,40.9624],[29.0704,40.9587],[29.0772,40.9566],[29.0811,40.9535],[29.0844,40.9531],[29.0839,40.9544],[29.0872,40.9546],[29.0888,40.9516],[29.0945,40.95],[29.0905,40.9513],[29.0948,40.952],[29.1012,40.9563],[29.1113,40.9591]]]},"properties":{"name":"Kadıköy"},"id":"relation/1276548"},
{"type":"Feature","geometry":{"type":"Polygon","coordinates":[[[29.1926,40.989],[29.1774,40.9909],[29.1655,40.9941],[29.1374,40.9969],[29.1153,40.9961],[29.1092,40.9985],[29.0957,41.008],[29.0894,41.0095],[29.0726,41.0056],[29.0733,40.9924],[29.0866,40.9874],[29.0926,40.9836],[29.1038,40.9668],[29.1113,40.9591],[29.1158,40.9606],[29.1262,40.9728],[29.1374,40.9741],[29.1496,40.9724],[29.1539,40.9742],[29.1575,40.9791],[29.1623,40.9808],[29.1716,40.9782],[29.1734,40.9761],[29.1779,40.9772],[29.1796,40.9745],[29.198,40.9813],[29.2035,40.9832],[29.1926,40.989]]]},"properties":{"name":"Ataşehir"},"id":"relation/1276672"},
{"type":"Feature","geometry":{"type":"Polygon","coordinates":[[[29.0733,40.9924],[29.0726,41.0056],[29.0894,41.0095],[29.0832,41.0211],[29.0831,41.0241],[29.0846,41.0247],[29.0804,41.0294],[29.0869,41.0317],[29.0917,41.0404],[29.0887,41.0525],[29.0868,41.055],[29.0832,41.0563],[29.0855,41.0603],[29.0836,41.0637],[29.0777,41.0661],[29.0717,41.0736],[29.0643,41.0779],[29.0637,41.0764],[29.0555,41.0735],[29.057,41.0668],[29.0524,41.0615],[29.052,41.0481],[29.0314,41.0383],[29.0132,41.0261],[29.0095,41.026],[29.0063,41.0223],[29.0112,41.013],[29.0094,41.0139],[29.011,41.0123],[29.0089,41.0109],[29.0098,41.0092],[29.0069,41.011],[29.0104,41.0072],[29.0067,41.0073],[29.0084,41.0049],[29.0124,41.0045],[29.0134,41.0025],[29.0103,41.0027],[29.0116,41.0009],[29.0158,41.0002],[29.0176,41.0013],[29.0218,40.9985],[29.0371,41.0123],[29.0432,41.0097],[29.0472,41.0102],[29.0472,41.0015],[29.0733,40.9924]]]},"properties":{"name":"Üsküdar"},"id":"relation/1276889"},
{"type":"Feature","geometry":{"type":"Polygon","coordinates":[[[29.1908,41.0138],[29.1834,41.0151],[29.1798,41.0213],[29.1709,41.0302],[29.1621,41.0346],[29.1478,41.0369],[29.1404,41.0342],[29.1383,41.0414],[29.1383,41.045],[29.1343,41.0488],[29.1338,41.0531],[29.1253,41.0499],[29.1198,41.0522],[29.1136,41.059],[29.1082,41.0611],[29.0964,41.0612],[29.0957,41.0638],[29.098,41.0642],[29.0926,41.0654],[29.0836,41.0637],[29.0855,41.0603],[29.0832,41.0563],[29.0868,41.055],[29.0887,41.0525],[29.0917,41.0404],[29.0869,41.0317],[29.0804,41.0294],[29.0846,41.0247],[29.0831,41.0241],[29.0832,41.0211],[29.0894,41.0095],[29.0957,41.008],[29.1092,40.9985],[29.1153,40.9961],[29.1374,40.9969],[29.1655,40.9941],[29.1774,40.9909],[29.1926,40.989],[29.1928,40.9925],[29.1911,40.9926],[29.1929,40.9967],[29.1893,41.006],[29.1854,41.0088],[29.1947,41.0114],[29.194,41.0133],[29.1908,41.0138]]]},"properties":{"name":"Ümraniye"},"id":"relation/1276890"},
{"type":"Feature","geometry":{"type":"Polygon","coordinates":[[[29.3325,41.2166],[29.3311,41.2153],[29.3273,41.217],[29.319,41.2166],[29.3156,41.2193],[29.3098,41.2208],[29.2899,41.2226],[29.2778,41.2279],[29.2721,41.2279],[29.2707,41.2296],[29.2677,41.228],[29.2654,41.2312],[29.2575,41.2306],[29.2564,41.2353],[29.2456,41.232],[29.2414,41.2279],[29.2378,41.2293],[29.2357,41.2285],[29.2341,41.2301],[29.2289,41.2282],[29.2239,41.2306],[29.2229,41.2291],[29.2195,41.2289],[29.2186,41.2313],[29.2151,41.2313],[29.2139,41.23],[29.2168,41.226],[29.2142,41.2235],[29.2042,41.2215],[29.2001,41.224],[29.2007,41.2219],[29.1976,41.2203],[29.1823,41.221],[29.177,41.2226],[29.1758,41.2215],[29.1723,41.2244],[29.1654,41.2245],[29.1614,41.2172],[29.154,41.2196],[29.1507,41.2181],[29.152,41.2143],[29.1477,41.2119],[29.1416,41.213],[29.1351,41.209],[29.13,41.2084],[29.1254,41.2048],[29.1277,41.2045],[29.127,41.2055],[29.1297,41.2074],[29.1316,41.2058],[29.131,41.2031],[29.1284,41.2022],[29.1265,41.2031],[29.1178,41.2],[29.1201,41.1967],[29.1181,41.187],[29.1127,41.1846],[29.1126,41.183],[29.1082,41.1838],[29.1067,41.1807],[29.1018,41.1817],[29.0871,41.1787],[29.0884,41.1731],[29.0867,41.1701],[29.0814,41.1673],[29.0758,41.1667],[29.0735,41.1646],[29.0724,41.1612],[29.0779,41.1545],[29.0712,41.1432],[29.079,41.1396],[29.0835,41.1404],[29.0782,41.1389],[29.0804,41.1368],[29.0855,41.1369],[29.0914,41.1344],[29.0978,41.123],[29.0961,41.1177],[29.0878,41.115],[29.0817,41.1072],[29.0733,41.107],[29.0662,41.1027],[29.0644,41.0977],[29.0675,41.0944],[29.0656,41.093],[29.0669,41.0851],[29.0643,41.0779],[29.0717,41.0736],[29.0777,41.0661],[29.0836,41.0637],[29.0926,41.0654],[29.098,41.0642],[29.0957,41.0638],[29.0964,41.0612],[29.1082,41.0611],[29.1136,41.059],[29.1198,41.0522],[29.1253,41.0499],[29.1338,41.0531],[29.1343,41.0488],[29.1383,41.045],[29.1383,41.0414],[29.1412,41.0432],[29.142,41.0475],[29.1479,41.0474],[29.1485,41.0492],[29.1546,41.0494],[29.1674,41.054],[29.1684,41.0561],[29.1709,41.0541],[29.1913,41.0549],[29.1969,41.0536],[29.2019,41.0562],[29.2079,41.0565],[29.2099,41.0588],[29.2048,41.0649],[29.202,41.0734],[29.2083,41.0881],[29.2077,41.0905],[29.2093,41.0897],[29.2105,41.0916],[29.2132,41.0908],[29.2134,41.0925],[29.2164,41.0926],[29.2224,41.0968],[29.222,41.1044],[29.2298,41.1069],[29.2322,41.11],[29.2339,41.1102],[29.2343,41.105],[29.2381,41.1023],[29.2424,41.1043],[29.2446,41.1024],[29.2492,41.1055],[29.249,41.111],[29.2529,41.1119],[29.2517,41.1145],[29.2528,41.116],[29.2567,41.1159],[29.2597,41.1188],[29.2628,41.1162],[29.274,41.12],[29.2757,41.1218],[29.2809,41.1206],[29.2821,41.1257],[29.2851,41.1284],[29.2852,41.1325],[29.292,41.1295],[29.2986,41.1287],[29.303,41.126],[29.3121,41.1257],[29.3141,41.1279],[29.3197,41.1298],[29.3278,41.1259],[29.3464,41.1296],[29.3508,41.1289],[29.3499,41.1266],[29.3526,41.125],[29.3591,41.1254],[29.3654,41.1356],[29.3637,41.1413],[29.3571,41.1433],[29.3537,41.1428],[29.3568,41.1497],[29.3508,41.1535],[29.3454,41.1517],[29.3463,41.1542],[29.3436,41.1559],[29.3408,41.1614],[29.3388,41.1594],[29.3293,41.1578],[29.3289,41.163],[29.326,41.1642],[29.326,41.1694],[29.324,41.1681],[29.3227,41.1764],[29.3242,41.18],[29.3211,41.1834],[29.3233,41.1895],[29.3219,41.1903],[29.3233,41.1954],[29.3324,41.2036],[29.3297,41.2112],[29.3325,41.2166]]]},"properties":{"name":"Beykoz"},"id":"relation/1276910"},
{"type":"Feature","geometry":{"type":"Polygon","coordinates":[[[28.9481,41.0647],[28.9477,41.0555],[28.9403,41.0525],[28.939,41.0493],[28.9415,41.0455],[28.9491,41.0414],[28.9536,41.0357],[28.9524,41.0349],[28.9609,41.0339],[28.9657,41.0311],[28.9672,41.0249],[28.9699,41.0224],[28.9769,41.0218],[28.9885,41.0282],[28.9921,41.0326],[28.9944,41.0326],[28.9937,41.035],[28.9958,41.0368],[28.9931,41.0392],[28.9829,41.0422],[28.9817,41.0413],[28.9758,41.0457],[28.9681,41.0455],[28.968,41.0477],[28.9624,41.0513],[28.9618,41.0535],[28.9555,41.0537],[28.9548,41.0589],[28.9496,41.0626],[28.9513,41.0652],[28.9481,41.0647]]]},"properties":{"name":"Beyoğlu"},"id":"relation/1765892"},
{"type":"Feature","geometry":{"type":"Polygon","coordinates":[[[28.9958,41.0368],[29.0328,41.0497],[29.0366,41.0594],[29.0409,41.0629],[29.0423,41.0665],[29.0465,41.068],[29.0444,41.0777],[29.0548,41.0811],[29.0546,41.0841],[29.0419,41.0848],[29.042,41.0907],[29.0233,41.0942],[29.0283,41.0953],[29.0331,41.0992],[29.0231,41.0991],[29.0185,41.1015],[29.0145,41.1067],[29.0059,41.0956],[29.0058,41.0902],[29.0083,41.0847],[29.0147,41.0761],[29.0159,41.0719],[29.0117,41.0629],[29.0072,41.0663],[29.0032,41.0668],[29.0011,41.0578],[28.9987,41.0555],[29.0022,41.0505],[29.0008,41.0492],[28.9982,41.0498],[28.9961,41.0459],[28.9971,41.0441],[28.9954,41.0436],[28.9967,41.0407],[28.9931,41.0418],[28.9931,41.0392],[28.9958,41.0368]]]},"properties":{"name":"Beşiktaş"},"id":"relation/1765893"},
{"type":"Feature","geometry":{"type":"Polygon","coordinates":[[[28.9618,41.0535],[28.9698,41.0642],[28.975,41.0664],[28.9797,41.0708],[28.9827,41.0691],[28.9888,41.0725],[28.9893,41.0782],[29.0009,41.0748],[29.007,41.0759],[29.0076,41.0792],[29.0049,41.0842],[29.0083,41.0847],[29.0058,41.0902],[29.0042,41.0986],[29.0018,41.1006],[28.9855,41.0989],[28.9847,41.1028],[28.9822,41.1049],[28.9779,41.1031],[28.976,41.1049],[28.9749,41.1031],[28.9663,41.1032],[28.9682,41.1072],[28.9655,41.1082],[28.9602,41.1057],[28.9539,41.1049],[28.9541,41.1006],[28.9573,41.0998],[28.9673,41.0919],[28.9679,41.0865],[28.964,41.0855],[28.9636,41.0803],[28.9569,41.074],[28.9554,41.0681],[28.9513,41.0652],[28.9496,41.0626],[28.9548,41.0589],[28.9555,41.0537],[28.9618,41.0535]]]},"properties":{"name":"Kağıthane"},"id":"relation/1765894"},
{"type":"Feature","geometry":{"type":"Polygon","coordinates":[[[29.0548,41.0811],[29.0568,41.0832],[29.0572,41.0908],[29.054,41.0948],[29.0545,41.0979],[29.0529,41.0977],[29.0594,41.1093],[29.0577,41.1135],[29.0544,41.1138],[29.0572,41.1149],[29.0618,41.1131],[29.0703,41.1202],[29.0717,41.1245],[29.0701,41.1275],[29.0642,41.1305],[29.0611,41.1357],[29.0542,41.1386],[29.058,41.1397],[29.0524,41.147],[29.0445,41.1497],[29.0414,41.1529],[29.0368,41.1546],[29.0364,41.1567],[29.0518,41.1648],[29.057,41.1658],[29.0604,41.1706],[29.0727,41.175],[29.0738,41.1809],[29.0742,41.1797],[29.0771,41.1856],[29.0816,41.1876],[29.0914,41.2004],[29.0978,41.2029],[29.1002,41.2061],[29.1034,41.2051],[29.1053,41.2064],[29.1109,41.2129],[29.1095,41.2136],[29.1118,41.2142],[29.1068,41.2168],[29.1064,41.2211],[29.1097,41.2229],[29.1081,41.2243],[29.114,41.2296],[29.112,41.2314],[29.1133,41.2341],[29.1153,41.2334],[29.1139,41.2318],[29.1148,41.2288],[29.1162,41.234],[29.109,41.2353],[29.1122,41.2378],[29.1098,41.2385],[29.1062,41.2372],[29.107,41.2397],[29.1051,41.2387],[29.1055,41.2401],[29.1029,41.2414],[29.1004,41.242],[29.0977,41.2402],[29.0973,41.2437],[29.0933,41.2454],[29.0916,41.2437],[29.0902,41.2478],[29.0847,41.2456],[29.0831,41.2493],[29.0845,41.2499],[29.0797,41.2488],[29.0802,41.2517],[29.078,41.2546],[29.0754,41.2497],[29.0724,41.2479],[29.071,41.2487],[29.0722,41.2517],[29.0675,41.2523],[29.0674,41.2536],[29.0646,41.2507],[29.0621,41.2517],[29.0607,41.2551],[29.0542,41.2548],[29.0495,41.257],[29.0442,41.2536],[29.0417,41.2548],[29.0418,41.2564],[29.0381,41.2565],[29.0386,41.2519],[29.0337,41.2495],[29.0333,41.2463],[29.0198,41.2452],[29.0011,41.2471],[28.9824,41.2523],[28.9682,41.254],[28.9648,41.2552],[28.9629,41.2584],[28.9546,41.2623],[28.9494,41.2622],[28.9485,41.2588],[28.9433,41.2563],[28.9403,41.2512],[28.9407,41.2484],[28.9326,41.232],[28.9352,41.2296],[28.9349,41.225],[28.937,41.2253],[28.9371,41.2223],[28.9383,41.2234],[28.9417,41.2215],[28.9533,41.2208],[28.9538,41.2193],[28.9534,41.2146],[28.9478,41.2034],[28.9507,41.195],[28.9541,41.1936],[28.952,41.1605],[28.9579,41.1604],[28.957,41.158],[28.9593,41.1567],[28.9714,41.1575],[28.9758,41.1534],[28.9761,41.1473],[28.9689,41.1404],[28.9669,41.1362],[28.9633,41.1342],[28.965,41.1319],[28.9597,41.1272],[28.959,41.1241],[28.9624,41.1174],[28.9585,41.1133],[28.9655,41.1082],[28.9682,41.1072],[28.9663,41.1032],[28.9749,41.1031],[28.976,41.1049],[28.9779,41.1031],[28.9822,41.1049],[28.9847,41.1028],[28.9855,41.0989],[29.0018,41.1006],[29.0042,41.0986],[29.0058,41.0902],[29.0059,41.0956],[29.0145,41.1067],[29.0185,41.1015],[29.0231,41.0991],[29.0331,41.0992],[29.0283,41.0953],[29.0233,41.0942],[29.042,41.0907],[29.0419,41.0848],[29.0546,41.0841],[29.0548,41.0811]]]},"properties":{"name":"Sarıyer"},"id":"relation/1765895"},
{"type":"Feature","geometry":{"type":"Polygon","coordinates":[[[28.9931,41.0392],[28.9931,41.0418],[28.9967,41.0407],[28.9954,41.0436],[28.9971,41.0441],[28.9961,41.0459],[28.9982,41.0498],[29.0008,41.0492],[29.0022,41.0505],[28.9987,41.0555],[29.0011,41.0578],[29.0032,41.0668],[29.0072,41.0663],[29.0117,41.0629],[29.0159,41.0719],[29.0147,41.0761],[29.0083,41.0847],[29.0049,41.0842],[29.0076,41.0792],[29.007,41.0759],[29.0009,41.0748],[28.9893,41.0782],[28.9888,41.0725],[28.9827,41.0691],[28.9797,41.0708],[28.975,41.0664],[28.9698,41.0642],[28.9618,41.0535],[28.9624,41.0513],[28.968,41.0477],[28.9681,41.0455],[28.9758,41.0457],[28.9817,41.0413],[28.9829,41.0422],[28.9931,41.0392]]]},"properties":{"name":"Şişli"},"id":"relation/1765896"},
{"type":"Feature","geometry":{"type":"Polygon","coordinates":[[[28.6336,41.0888],[28.6356,41.095],[28.6393,41.096],[28.6396,41.0981],[28.6431,41.1036],[28.6457,41.1015],[28.659,41.0993],[28.6682,41.1068],[28.6781,41.1102],[28.6737,41.1118],[28.6739,41.1135],[28.6818,41.1223],[28.6893,41.1254],[28.7167,41.1117],[28.7217,41.1118],[28.7272,41.1144],[28.7335,41.1253],[28.7358,41.1364],[28.7398,41.1323],[28.7459,41.1337],[28.7495,41.1314],[28.7577,41.1315],[28.7651,41.1374],[28.7711,41.1392],[28.7808,41.1487],[28.7904,41.1483],[28.8075,41.1379],[28.8152,41.1363],[28.8151,41.1412],[28.8173,41.1429],[28.8163,41.1529],[28.8147,41.1543],[28.8163,41.1597],[28.8138,41.1639],[28.8137,41.1745],[28.8142,41.1756],[28.8198,41.1754],[28.8214,41.1825],[28.8179,41.1868],[28.8191,41.1966],[28.816,41.2011],[28.8192,41.203],[28.8208,41.2072],[28.818,41.2107],[28.8152,41.2113],[28.8089,41.22],[28.7965,41.2231],[28.7975,41.2291],[28.7942,41.2336],[28.7888,41.2369],[28.7867,41.2434],[28.7876,41.2476],[28.7791,41.2578],[28.7748,41.2584],[28.77,41.2694],[28.777,41.2711],[28.7775,41.2761],[28.7813,41.2796],[28.7858,41.3022],[28.7887,41.306],[28.7901,41.3083],[28.7904,41.3116],[28.7888,41.3142],[28.7892,41.3072],[28.7862,41.3068],[28.7818,41.3083],[28.7807,41.312],[28.7816,41.3131],[28.7853,41.3126],[28.7743,41.3175],[28.7696,41.3245],[28.7628,41.3231],[28.7519,41.3289],[28.7479,41.3267],[28.742,41.326],[28.7362,41.3274],[28.7276,41.3262],[28.6863,41.3414],[28.6839,41.3446],[28.6862,41.345],[28.6868,41.3431],[28.6879,41.3451],[28.6834,41.3483],[28.6795,41.3476],[28.6776,41.3434],[28.6736,41.3428],[28.6605,41.3465],[28.6563,41.3493],[28.6455,41.3491],[28.6364,41.351],[28.5787,41.3738],[28.5576,41.3856],[28.5385,41.3899],[28.4932,41.4076],[28.4912,41.4049],[28.4914,41.3901],[28.4956,41.3877],[28.5197,41.3832],[28.5342,41.3711],[28.5653,41.366],[28.5731,41.3536],[28.5573,41.3094],[28.5567,41.2951],[28.5519,41.287],[28.5522,41.2789],[28.5445,41.2757],[28.5446,41.2703],[28.5465,41.2642],[28.5506,41.2597],[28.5611,41.2612],[28.5756,41.258],[28.5752,41.2486],[28.5778,41.2464],[28.5762,41.2412],[28.5782,41.2385],[28.5752,41.2338],[28.5792,41.2294],[28.5825,41.2317],[28.5838,41.2205],[28.5824,41.2173],[28.5858,41.2053],[28.5947,41.1907],[28.5954,41.1853],[28.5943,41.1716],[28.5917,41.1666],[28.5859,41.164],[28.5804,41.1521],[28.5679,41.1409],[28.5744,41.1288],[28.5632,41.1201],[28.5624,41.1156],[28.5668,41.1142],[28.5807,41.127],[28.5844,41.1279],[28.5868,41.1267],[28.588,41.1278],[28.5908,41.1261],[28.5925,41.1291],[28.5977,41.1198],[28.6012,41.12],[28.6041,41.1183],[28.6046,41.1122],[28.6083,41.1111],[28.6095,41.1157],[28.6145,41.1184],[28.6193,41.1102],[28.6229,41.1076],[28.6252,41.1004],[28.6293,41.0966],[28.631,41.0932],[28.6296,41.0922],[28.6336,41.0888]]]},"properties":{"name":"Arnavutköy"},"id":"relation/1766093"},
{"type":"Feature","geometry":{"type":"Polygon","coordinates":[[[28.756,40.9802],[28.7398,41.0446],[28.7407,41.0528],[28.7453,41.0591],[28.7443,41.0621],[28.7429,41.0636],[28.7359,41.0622],[28.732,41.0641],[28.7329,41.0651],[28.7291,41.0668],[28.7261,41.0715],[28.7058,41.088],[28.7062,41.0903],[28.6978,41.1011],[28.6893,41.1061],[28.6925,41.1004],[28.691,41.0923],[28.6939,41.0822],[28.7001,41.0718],[28.6993,41.0645],[28.7011,41.06],[28.6916,41.0578],[28.6823,41.055],[28.6897,41.0474],[28.6906,41.0431],[28.6972,41.0416],[28.6906,41.0363],[28.691,41.0318],[28.6963,41.0314],[28.6972,41.0292],[28.7019,41.0288],[28.7002,41.0155],[28.6967,41.0124],[28.7019,41.0094],[28.6992,41.0057],[28.6983,41.0001],[28.6921,40.9998],[28.6879,41.0022],[28.6843,41.0012],[28.6876,40.9904],[28.6947,40.9858],[28.6998,40.9796],[28.6995,40.9737],[28.7122,40.9727],[28.718,40.9693],[28.715,40.9717],[28.7195,40.9707],[28.7198,40.9693],[28.7255,40.969],[28.7247,40.9705],[28.7282,40.9716],[28.7353,40.9714],[28.738,40.9699],[28.7416,40.9705],[28.7445,40.9747],[28.7525,40.9797],[28.756,40.9802]]]},"properties":{"name":"Avcılar"},"id":"relation/1766094"},
{"type":"Feature","geometry":{"type":"Polygon","coordinates":[[[28.811,41.0272],[28.8084,41.028],[28.8061,41.0155],[28.8082,41.0151],[28.8117,41.0006],[28.8162,40.9955],[28.8202,40.995],[28.8213,40.9931],[28.8539,40.9922],[28.8848,41.0014],[28.8815,41.0062],[28.8808,41.0165],[28.8747,41.0081],[28.8706,41.0062],[28.8601,41.0176],[28.8584,41.0203],[28.8585,41.0191],[28.8546,41.0211],[28.8485,41.0214],[28.8475,41.0243],[28.8443,41.0214],[28.8393,41.0221],[28.838,41.0237],[28.8282,41.0221],[28.8271,41.0203],[28.8229,41.0198],[28.811,41.0272]]]},"properties":{"name":"Bahçelievler"},"id":"relation/1766095"},
{"type":"Feature","geometry":{"type":"Polygon","coordinates":[[[28.8213,40.9931],[28.816,40.9946],[28.8096,40.9999],[28.8011,41],[28.797,40.9964],[28.802,40.985],[28.8007,40.9843],[28.7924,40.9892],[28.7834,40.9855],[28.7735,40.9866],[28.7753,40.984],[28.7757,40.9825],[28.7752,40.9774],[28.8052,40.9613],[28.8107,40.956],[28.8118,40.9571],[28.8142,40.9554],[28.8236,40.9545],[28.8253,40.9552],[28.8222,40.9552],[28.8227,40.957],[28.8246,40.956],[28.8255,40.9572],[28.83,40.9547],[28.8357,40.9562],[28.8357,40.9576],[28.8389,40.957],[28.8463,40.9669],[28.8451,40.9678],[28.8467,40.9707],[28.8488,40.9716],[28.8514,40.9696],[28.8491,40.972],[28.8519,40.9701],[28.8493,40.9721],[28.8518,40.9744],[28.8658,40.9737],[28.8684,40.9728],[28.8693,40.9709],[28.8753,40.9688],[28.8797,40.9724],[28.8744,40.9692],[28.873,40.9702],[28.8763,40.9726],[28.8785,40.9724],[28.8768,40.9742],[28.8893,40.9797],[28.8907,40.9799],[28.8909,40.9779],[28.8909,40.9799],[28.8898,40.9819],[28.8898,40.9826],[28.8918,40.9892],[28.8942,40.9956],[28.8919,40.9998],[28.896,41.0067],[28.8848,41.0014],[28.8539,40.9922],[28.8213,40.9931]]]},"properties":{"name":"Bakırköy"},"id":"relation/1766096"},
{"type":"Feature","geometry":{"type":"Polygon","coordinates":[[[28.8787,41.0773],[28.8784,41.0711],[28.8857,41.0595],[28.8849,41.0437],[28.8889,41.0378],[28.8951,41.0354],[28.8991,41.0277],[28.9119,41.0325],[28.9199,41.0258],[28.9242,41.0286],[28.9165,41.0391],[28.9156,41.043],[28.9185,41.0424],[28.9109,41.0516],[28.9094,41.0555],[28.9031,41.06],[28.9004,41.0651],[28.8787,41.0773]]]},"properties":{"name":"Bayrampaşa"},"id":"relation/1766097"},
{"type":"Feature","geometry":{"type":"Polygon","coordinates":[[[28.8601,41.0176],[28.8631,41.0191],[28.8591,41.0287],[28.8673,41.0295],[28.8723,41.0277],[28.8712,41.0384],[28.8611,41.0403],[28.8593,41.0427],[28.8598,41.0486],[28.8567,41.0541],[28.8548,41.0543],[28.8563,41.067],[28.8603,41.0714],[28.8537,41.0722],[28.8473,41.0662],[28.8436,41.065],[28.8338,41.0688],[28.8154,41.0722],[28.8116,41.0613],[28.808,41.0465],[28.8107,41.0376],[28.811,41.0272],[28.8229,41.0198],[28.8271,41.0203],[28.8282,41.0221],[28.838,41.0237],[28.8393,41.0221],[28.8443,41.0214],[28.8475,41.0243],[28.8485,41.0214],[28.8546,41.0211],[28.8585,41.0191],[28.8584,41.0203],[28.8601,41.0176]]]},"properties":{"name":"Bağcılar"},"id":"relation/1766098"},
{"type":"Feature","geometry":{"type":"Polygon","coordinates":[[[28.6396,41.0981],[28.6445,41.0952],[28.6515,41.0862],[28.6552,41.0762],[28.6726,41.0646],[28.686,41.0614],[28.6916,41.0578],[28.7011,41.06],[28.6993,41.0645],[28.7001,41.0718],[28.6939,41.0822],[28.691,41.0923],[28.6925,41.1004],[28.6893,41.1061],[28.6978,41.1011],[28.7062,41.0903],[28.7058,41.088],[28.7261,41.0715],[28.7291,41.0668],[28.7329,41.0651],[28.732,41.0641],[28.7359,41.0622],[28.7429,41.0636],[28.7443,41.0621],[28.7559,41.061],[28.791,41.0641],[28.8116,41.0613],[28.8154,41.0722],[28.8338,41.0688],[28.8374,41.0722],[28.8431,41.0833],[28.8506,41.1017],[28.85,41.1077],[28.8451,41.1129],[28.8452,41.119],[28.8282,41.1299],[28.8245,41.1335],[28.8249,41.1355],[28.8152,41.1363],[28.8075,41.1379],[28.7904,41.1483],[28.7808,41.1487],[28.7711,41.1392],[28.7651,41.1374],[28.7577,41.1315],[28.7495,41.1314],[28.7459,41.1337],[28.7398,41.1323],[28.7358,41.1364],[28.7335,41.1253],[28.7272,41.1144],[28.7217,41.1118],[28.7167,41.1117],[28.6893,41.1254],[28.6818,41.1223],[28.6739,41.1135],[28.6737,41.1118],[28.6781,41.1102],[28.6682,41.1068],[28.659,41.0993],[28.6457,41.1015],[28.6431,41.1036],[28.6396,41.0981]]]},"properties":{"name":"Başakşehir"},"id":"relation/1766099"},
{"type":"Feature","geometry":{"type":"Polygon","coordinates":[[[28.597,40.997],[28.5962,40.9881],[28.599,40.9807],[28.5949,40.9736],[28.5991,40.9688],[28.5988,40.9678],[28.5974,40.9697],[28.5982,40.9677],[28.5959,40.9642],[28.6003,40.9621],[28.602,40.9632],[28.6004,40.9624],[28.5964,40.9642],[28.5971,40.9653],[28.6003,40.9641],[28.5972,40.9655],[28.5981,40.9666],[28.6019,40.9642],[28.6065,40.9653],[28.6207,40.9607],[28.6521,40.9628],[28.6575,40.9606],[28.6541,40.9631],[28.658,40.9636],[28.6649,40.9627],[28.6648,40.9612],[28.6635,40.961],[28.6576,40.9618],[28.6633,40.9608],[28.6668,40.9608],[28.6669,40.9579],[28.6719,40.9572],[28.6692,40.9596],[28.6691,40.9632],[28.6706,40.9637],[28.6709,40.9613],[28.6708,40.9638],[28.6724,40.964],[28.6726,40.9613],[28.6746,40.9614],[28.6744,40.9645],[28.6759,40.9648],[28.6766,40.9613],[28.6761,40.9659],[28.6778,40.9659],[28.6784,40.9628],[28.6786,40.9679],[28.6799,40.9633],[28.68,40.9665],[28.6815,40.9666],[28.6819,40.9629],[28.6819,40.9667],[28.6837,40.9668],[28.6845,40.9629],[28.6848,40.9688],[28.6869,40.9686],[28.687,40.9702],[28.6918,40.9722],[28.695,40.9723],[28.6952,40.9709],[28.6953,40.9725],[28.6995,40.9737],[28.6998,40.9796],[28.6947,40.9858],[28.6876,40.9904],[28.6843,41.0012],[28.6879,41.0022],[28.6818,41.0056],[28.6641,41.0069],[28.6334,41.0185],[28.6318,41.0164],[28.6264,41.0167],[28.6258,41.0097],[28.6196,41.0031],[28.6126,40.9917],[28.605,40.9975],[28.6027,40.9963],[28.6017,40.998],[28.597,40.997]]]},"properties":{"name":"Beylikdüzü"},"id":"relation/1766100"},
{"type":"Feature","geometry":{"type":"Polygon","coordinates":[[[28.8787,41.0773],[28.8743,41.0816],[28.8631,41.0908],[28.85,41.1077],[28.8506,41.1017],[28.8431,41.0833],[28.8374,41.0722],[28.8338,41.0688],[28.8436,41.065],[28.8473,41.0662],[28.8537,41.0722],[28.8603,41.0714],[28.8563,41.067],[28.8548,41.0543],[28.8567,41.0541],[28.8598,41.0486],[28.8593,41.0427],[28.8611,41.0403],[28.8712,41.0384],[28.8744,41.0368],[28.8765,41.0318],[28.8855,41.034],[28.8905,41.0299],[28.8854,41.0226],[28.8873,41.0208],[28.8868,41.0174],[28.8985,41.019],[28.9006,41.0209],[28.8991,41.0277],[28.8951,41.0354],[28.8889,41.0378],[28.8849,41.0437],[28.8857,41.0595],[28.8784,41.0711],[28.8787,41.0773]]]},"properties":{"name":"Esenler"},"id":"relation/1766101"},
{"type":"Feature","geometry":{"type":"Polygon","coordinates":[[[28.6334,41.0185],[28.6641,41.0069],[28.6818,41.0056],[28.6879,41.0022],[28.6921,40.9998],[28.6983,41.0001],[28.6992,41.0057],[28.7019,41.0094],[28.6967,41.0124],[28.7002,41.0155],[28.7019,41.0288],[28.6972,41.0292],[28.6963,41.0314],[28.691,41.0318],[28.6906,41.0363],[28.6972,41.0416],[28.6906,41.0431],[28.6897,41.0474],[28.6823,41.055],[28.6916,41.0578],[28.686,41.0614],[28.6726,41.0646],[28.6552,41.0762],[28.6515,41.0862],[28.6445,41.0952],[28.6396,41.0981],[28.6393,41.096],[28.6356,41.095],[28.6336,41.0888],[28.6285,41.0855],[28.6293,41.084],[28.6205,41.0687],[28.6281,41.0526],[28.6277,41.0438],[28.6234,41.034],[28.6285,41.025],[28.6288,41.021],[28.6334,41.0185]]]},"properties":{"name":"Esenyurt"},"id":"relation/1766102"},
{"type":"Feature","geometry":{"type":"Polygon","coordinates":[[[28.9513,41.0652],[28.9554,41.0681],[28.9569,41.074],[28.9636,41.0803],[28.964,41.0855],[28.9679,41.0865],[28.9673,41.0919],[28.9573,41.0998],[28.9541,41.1006],[28.9539,41.1049],[28.9602,41.1057],[28.9655,41.1082],[28.9585,41.1133],[28.9624,41.1174],[28.959,41.1241],[28.9597,41.1272],[28.965,41.1319],[28.9633,41.1342],[28.9669,41.1362],[28.9689,41.1404],[28.9761,41.1473],[28.9758,41.1534],[28.9714,41.1575],[28.9593,41.1567],[28.957,41.158],[28.9579,41.1604],[28.952,41.1605],[28.9541,41.1936],[28.9507,41.195],[28.9478,41.2034],[28.9534,41.2146],[28.9538,41.2193],[28.9533,41.2208],[28.9417,41.2215],[28.9383,41.2234],[28.9371,41.2223],[28.937,41.2253],[28.9349,41.225],[28.9352,41.2296],[28.9326,41.232],[28.9407,41.2484],[28.9403,41.2512],[28.9433,41.2563],[28.9485,41.2588],[28.9494,41.2622],[28.9373,41.2649],[28.9218,41.2719],[28.9098,41.272],[28.9022,41.2753],[28.8876,41.2744],[28.859,41.281],[28.8455,41.2873],[28.8356,41.2878],[28.8199,41.2923],[28.8202,41.2944],[28.8153,41.2957],[28.8039,41.3034],[28.7977,41.302],[28.7887,41.306],[28.7858,41.3022],[28.7813,41.2796],[28.7775,41.2761],[28.777,41.2711],[28.77,41.2694],[28.7748,41.2584],[28.7791,41.2578],[28.7876,41.2476],[28.7867,41.2434],[28.7888,41.2369],[28.7942,41.2336],[28.7975,41.2291],[28.7965,41.2231],[28.8089,41.22],[28.8152,41.2113],[28.818,41.2107],[28.8208,41.2072],[28.8192,41.203],[28.816,41.2011],[28.8191,41.1966],[28.8179,41.1868],[28.8214,41.1825],[28.8198,41.1754],[28.8142,41.1756],[28.8137,41.1745],[28.8138,41.1639],[28.8163,41.1597],[28.8147,41.1543],[28.8163,41.1529],[28.8173,41.1429],[28.8151,41.1412],[28.8152,41.1363],[28.8249,41.1355],[28.8284,41.1357],[28.8333,41.1336],[28.8329,41.142],[28.841,41.1477],[28.8427,41.1511],[28.8615,41.1598],[28.8669,41.1572],[28.8666,41.1518],[28.8725,41.1527],[28.8758,41.1503],[28.8737,41.1433],[28.8761,41.1423],[28.8806,41.1455],[28.8851,41.1451],[28.8882,41.139],[28.8992,41.1332],[28.9013,41.1285],[28.9065,41.1247],[28.9016,41.1212],[28.9068,41.1223],[28.9073,41.1197],[28.9105,41.1172],[28.9105,41.1141],[28.9181,41.114],[28.9208,41.1091],[28.9171,41.1046],[28.9196,41.1027],[28.917,41.0973],[28.9211,41.0944],[28.9227,41.0931],[28.9152,41.0788],[28.9173,41.0746],[28.9137,41.072],[28.9211,41.0667],[28.9272,41.0699],[28.9321,41.0692],[28.9339,41.0658],[28.9359,41.0658],[28.9364,41.0641],[28.935,41.0645],[28.9343,41.0629],[28.9366,41.0593],[28.9392,41.0595],[28.9355,41.0566],[28.9331,41.0578],[28.9301,41.0557],[28.9271,41.0562],[28.9272,41.0543],[28.9258,41.0558],[28.9243,41.0545],[28.9238,41.0559],[28.9221,41.0534],[28.9165,41.0554],[28.9147,41.0527],[28.9109,41.0516],[28.9185,41.0424],[28.9156,41.043],[28.9165,41.0391],[28.9242,41.0286],[28.9294,41.0246],[28.94,41.0333],[28.9394,41.0379],[28.9446,41.0408],[28.94,41.0423],[28.9351,41.05],[28.9387,41.0551],[28.9468,41.0572],[28.9437,41.0645],[28.9467,41.0634],[28.9481,41.0647],[28.9513,41.0652]]]},"properties":{"name":"Eyüpsultan"},"id":"relation/1766103"},
{"type":"Feature","geometry":{"type":"Polygon","coordinates":[[[28.9294,41.0246],[28.9244,41.0207],[28.9218,41.0161],[28.9191,40.9879],[28.9238,40.9877],[28.9278,40.9914],[28.9296,40.9909],[28.9301,40.9927],[28.9294,40.9911],[28.9279,40.9918],[28.935,40.9998],[28.9388,41.0017],[28.9382,40.9997],[28.9403,40.9977],[28.948,40.9963],[28.9534,40.9984],[28.961,40.9982],[28.9537,40.9992],[28.9537,41.0021],[28.9783,41.0011],[28.9863,41.0067],[28.9881,41.0125],[28.9867,41.0174],[28.9769,41.0167],[28.9696,41.0196],[28.9663,41.0195],[28.9573,41.0285],[28.9531,41.0292],[28.9501,41.032],[28.9446,41.0408],[28.9394,41.0379],[28.94,41.0333],[28.9294,41.0246]]]},"properties":{"name":"Fatih"},"id":"relation/1766104"},
{"type":"Feature","geometry":{"type":"Polygon","coordinates":[[[28.9109,41.0516],[28.9147,41.0527],[28.9165,41.0554],[28.9221,41.0534],[28.9238,41.0559],[28.9243,41.0545],[28.9258,41.0558],[28.9272,41.0543],[28.9271,41.0562],[28.9301,41.0557],[28.9331,41.0578],[28.9355,41.0566],[28.9392,41.0595],[28.9366,41.0593],[28.9343,41.0629],[28.935,41.0645],[28.9364,41.0641],[28.9359,41.0658],[28.9339,41.0658],[28.9321,41.0692],[28.9272,41.0699],[28.9211,41.0667],[28.9137,41.072],[28.9173,41.0746],[28.9152,41.0788],[28.9227,41.0931],[28.9211,41.0944],[28.909,41.091],[28.8891,41.0902],[28.8807,41.087],[28.8743,41.0816],[28.8787,41.0773],[28.9004,41.0651],[28.9031,41.06],[28.9094,41.0555],[28.9109,41.0516]]]},"properties":{"name":"Gaziosmanpaşa"},"id":"relation/1766105"},
{"type":"Feature","geometry":{"type":"Polygon","coordinates":[[[28.8848,41.0014],[28.896,41.0067],[28.8999,41.0134],[28.9006,41.0209],[28.8985,41.019],[28.8868,41.0174],[28.8873,41.0208],[28.8854,41.0226],[28.8905,41.0299],[28.8855,41.034],[28.8765,41.0318],[28.8744,41.0368],[28.8712,41.0384],[28.8723,41.0277],[28.8673,41.0295],[28.8591,41.0287],[28.8631,41.0191],[28.8601,41.0176],[28.8706,41.0062],[28.8747,41.0081],[28.8808,41.0165],[28.8815,41.0062],[28.8848,41.0014]]]},"properties":{"name":"Güngören"},"id":"relation/1766106"},
{"type":"Feature","geometry":{"type":"Polygon","coordinates":[[[28.85,41.1077],[28.8631,41.0908],[28.8743,41.0816],[28.8807,41.087],[28.8891,41.0902],[28.909,41.091],[28.9211,41.0944],[28.917,41.0973],[28.9196,41.1027],[28.9171,41.1046],[28.9208,41.1091],[28.9181,41.114],[28.9105,41.1141],[28.9105,41.1172],[28.9073,41.1197],[28.9068,41.1223],[28.9016,41.1212],[28.9065,41.1247],[28.9013,41.1285],[28.8992,41.1332],[28.8882,41.139],[28.8851,41.1451],[28.8806,41.1455],[28.8761,41.1423],[28.8737,41.1433],[28.8758,41.1503],[28.8725,41.1527],[28.8666,41.1518],[28.8669,41.1572],[28.8615,41.1598],[28.8427,41.1511],[28.841,41.1477],[28.8329,41.142],[28.8333,41.1336],[28.8284,41.1357],[28.8249,41.1355],[28.8245,41.1335],[28.8282,41.1299],[28.8452,41.119],[28.8451,41.1129],[28.85,41.1077]]]},"properties":{"name":"Sultangazi"},"id":"relation/1766108"},
{"type":"Feature","geometry":{"type":"Polygon","coordinates":[[[28.8918,40.9892],[28.8911,40.9836],[28.8899,40.9821],[28.8914,40.9798],[28.8917,40.9778],[28.8931,40.9801],[28.8913,40.981],[28.8941,40.9808],[28.8933,40.9792],[28.8944,40.9806],[28.8958,40.9791],[28.8964,40.9801],[28.8965,40.979],[28.9024,40.9792],[28.9085,40.9817],[28.9119,40.9857],[28.9191,40.9879],[28.9218,41.0161],[28.9244,41.0207],[28.9294,41.0246],[28.9242,41.0286],[28.9199,41.0258],[28.9119,41.0325],[28.8991,41.0277],[28.9006,41.0209],[28.8999,41.0134],[28.896,41.0067],[28.8919,40.9998],[28.8942,40.9956],[28.8918,40.9892]]]},"properties":{"name":"Zeytinburnu"},"id":"relation/1766109"},
{"type":"Feature","geometry":{"type":"Polygon","coordinates":[[[28.756,40.9802],[28.7665,40.9815],[28.7676,40.9846],[28.7673,40.983],[28.7694,40.982],[28.7671,40.9821],[28.7683,40.9799],[28.7748,40.977],[28.7724,40.9813],[28.7694,40.9819],[28.7753,40.9824],[28.7702,40.9898],[28.7718,40.9892],[28.7729,40.9861],[28.7752,40.9838],[28.7757,40.982],[28.7728,40.9807],[28.7752,40.9774],[28.7757,40.9825],[28.7753,40.984],[28.7735,40.9866],[28.7834,40.9855],[28.7924,40.9892],[28.8007,40.9843],[28.802,40.985],[28.797,40.9964],[28.8011,41],[28.8096,40.9999],[28.816,40.9946],[28.8213,40.9931],[28.8202,40.995],[28.8162,40.9955],[28.8117,41.0006],[28.8082,41.0151],[28.8061,41.0155],[28.8084,41.028],[28.811,41.0272],[28.8107,41.0376],[28.808,41.0465],[28.8116,41.0613],[28.791,41.0641],[28.7559,41.061],[28.7443,41.0621],[28.7453,41.0591],[28.7407,41.0528],[28.7398,41.0446],[28.756,40.9802]]]},"properties":{"name":"Küçükçekmece"}}
]}